SAUDISAT 1C             
1 27607U 02058C   16074.52471699  .00000333  00000-0  67906-4 0  9999
2 27607  64.5539  90.0597 0076468 236.4663 122.9119 14.75098168711303
SAUDISAT 2              
1 28371U 04025F   16075.56406514  .00000183  00000-0  53512-4 0  9994
2 28371  98.0711  38.5938 0025128 323.2415  36.7036 14.54163311621185
UNISAT 3                
1 28373U 04025H   16074.88072646  .00000201  00000-0  67938-4 0  9993
2 28373  98.2867  20.4849 0069392 163.6521 196.6931 14.45263367617555
SAUDISAT 3              
1 31118U 07012B   16075.53257099  .00000121  00000-0  28350-4 0  9999
2 31118  97.7212  88.0488 0014151 302.8628  57.1216 14.68982597477673
